{
  "type": "FeatureCollection",
  "features": [
    {
      "type": "Feature",
      "properties": {
        "norad_id": 30884,
        "name": "FENGYUN 1C DEB",
        "group": "fengyun-1c-debris",
        "lat": 76.23955609321624,
        "lon": -156.49300828286403,
        "alt_km": 674.6504314194335,
        "timestamp": "2025-12-15T15:53:20.131097+00:00",
        "meta_object_name": "FENGYUN 1C DEB",
        "meta_object_id": "1999-025AXW",
        "meta_epoch": "2025-12-13T22:41:36.390912",
        "meta_mean_motion": 14.73528349,
        "meta_eccentricity": 0.00667041,
        "meta_inclination": 98.891,
        "meta_ra_of_asc_node": 341.8938,
        "meta_arg_of_pericenter": 332.172,
        "meta_mean_anomaly": 27.5923,
        "meta_ephemeris_type": 0,
        "meta_classification_type": "U",
        "meta_norad_cat_id": 30884,
        "meta_element_set_no": 999,
        "meta_rev_at_epoch": 98679,
        "meta_bstar": 0.002190201,
        "meta_mean_motion_dot": 0.00014718,
        "meta_mean_motion_ddot": 0,
        "tle_line1": "1 30884U 99025AXW 25347.94556008  .00014718  00000+0  21902-2 0  9992",
        "tle_line2": "2 30884  98.8910 341.8938 0066704 332.1720  27.5923 14.73528349986790"
      },
      "geometry": {
        "type": "Point",
        "coordinates": [
          -156.49300828286403,
          76.23955609321624
        ]
      }
    },
    {
      "type": "Feature",
      "properties": {
        "norad_id": 30885,
        "name": "FENGYUN 1C DEB",
        "group": "fengyun-1c-debris",
        "lat": -68.6793087780841,
        "lon": -13.641375154283278,
        "alt_km": 705.2988950477129,
        "timestamp": "2025-12-15T15:53:20.131106+00:00",
        "meta_object_name": "FENGYUN 1C DEB",
        "meta_object_id": "1999-025AXX",
        "meta_epoch": "2025-12-14T08:04:58.941120",
        "meta_mean_motion": 14.49470268,
        "meta_eccentricity": 0.00536073,
        "meta_inclination": 99.0268,
        "meta_ra_of_asc_node": 188.9762,
        "meta_arg_of_pericenter": 214.4276,
        "meta_mean_anomaly": 324.3872,
        "meta_ephemeris_type": 0,
        "meta_classification_type": "U",
        "meta_norad_cat_id": 30885,
        "meta_element_set_no": 999,
        "meta_rev_at_epoch": 97000,
        "meta_bstar": 0.0027268253,
        "meta_mean_motion_dot": 0.00010599,
        "meta_mean_motion_ddot": 0,
        "tle_line1": "1 30885U 99025AXX 25348.33679330  .00010599  00000+0  27268-2 0  9995",
        "tle_line2": "2 30885  99.0268 188.9762 0053607 214.4276 324.3872 14.49470268970008"
      },
      "geometry": {
        "type": "Point",
        "coordinates": [
          -13.641375154283278,
          -68.6793087780841
        ]
      }
    },
    {
      "type": "Feature",
      "properties": {
        "norad_id": 30886,
        "name": "FENGYUN 1C DEB",
        "group": "fengyun-1c-debris",
        "lat": -41.55904769921901,
        "lon": 54.5011249651377,
        "alt_km": 847.5544823342534,
        "timestamp": "2025-12-15T15:53:20.131115+00:00",
        "meta_object_name": "FENGYUN 1C DEB",
        "meta_object_id": "1999-025AXY",
        "meta_epoch": "2025-12-14T10:09:24.475680",
        "meta_mean_motion": 14.2279993,
        "meta_eccentricity": 0.00363786,
        "meta_inclination": 99.2091,
        "meta_ra_of_asc_node": 241.4762,
        "meta_arg_of_pericenter": 29.8119,
        "meta_mean_anomaly": 330.512,
        "meta_ephemeris_type": 0,
        "meta_classification_type": "U",
        "meta_norad_cat_id": 30886,
        "meta_element_set_no": 999,
        "meta_rev_at_epoch": 96420,
        "meta_bstar": 0.0019787616,
        "meta_mean_motion_dot": 4.424e-05,
        "meta_mean_motion_ddot": 0,
        "tle_line1": "1 30886U 99025AXY 25348.42319995  .00004424  00000+0  19788-2 0  9992",
        "tle_line2": "2 30886  99.2091 241.4762 0036378  29.8119 330.5120 14.22799930964201"
      },
      "geometry": {
        "type": "Point",
        "coordinates": [
          54.5011249651377,
          -41.55904769921901
        ]
      }
    },
    {
      "type": "Feature",
      "properties": {
        "norad_id": 30887,
        "name": "FENGYUN 1C DEB",
        "group": "fengyun-1c-debris",
        "lat": 61.84863184784494,
        "lon": 29.520672039645785,
        "alt_km": 886.9622594581315,
        "timestamp": "2025-12-15T15:53:20.131127+00:00",
        "meta_object_name": "FENGYUN 1C DEB",
        "meta_object_id": "1999-025AXZ",
        "meta_epoch": "2025-12-14T21:18:37.059552",
        "meta_mean_motion": 14.44832312,
        "meta_eccentricity": 0.02635815,
        "meta_inclination": 98.3692,
        "meta_ra_of_asc_node": 44.726,
        "meta_arg_of_pericenter": 281.2617,
        "meta_mean_anomaly": 75.9061,
        "meta_ephemeris_type": 0,
        "meta_classification_type": "U",
        "meta_norad_cat_id": 30887,
        "meta_element_set_no": 999,
        "meta_rev_at_epoch": 98159,
        "meta_bstar": 0.00051122754,
        "meta_mean_motion_dot": 2.668e-05,
        "meta_mean_motion_ddot": 0,
        "tle_line1": "1 30887U 99025AXZ 25348.88792893  .00002668  00000+0  51123-3 0  9993",
        "tle_line2": "2 30887  98.3692  44.7260 0263581 281.2617  75.9061 14.44832312981592"
      },
      "geometry": {
        "type": "Point",
        "coordinates": [
          29.520672039645785,
          61.84863184784494
        ]
      }
    },
    {
      "type": "Feature",
      "properties": {
        "norad_id": 30888,
        "name": "FENGYUN 1C DEB",
        "group": "fengyun-1c-debris",
        "lat": 33.945763166305404,
        "lon": -37.39280776541572,
        "alt_km": 599.8858026159078,
        "timestamp": "2025-12-15T15:53:20.131136+00:00",
        "meta_object_name": "FENGYUN 1C DEB",
        "meta_object_id": "1999-025AYA",
        "meta_epoch": "2025-12-14T22:03:06.857568",
        "meta_mean_motion": 14.93949854,
        "meta_eccentricity": 0.00833193,
        "meta_inclination": 99.4827,
        "meta_ra_of_asc_node": 328.1715,
        "meta_arg_of_pericenter": 143.8605,
        "meta_mean_anomaly": 216.828,
        "meta_ephemeris_type": 0,
        "meta_classification_type": "U",
        "meta_norad_cat_id": 30888,
        "meta_element_set_no": 999,
        "meta_rev_at_epoch": 99958,
        "meta_bstar": 0.0006140618,
        "meta_mean_motion_dot": 6.92e-05,
        "meta_mean_motion_ddot": 0,
        "tle_line1": "1 30888U 99025AYA 25348.91882937  .00006920  00000+0  61406-3 0  9997",
        "tle_line2": "2 30888  99.4827 328.1715 0083319 143.8605 216.8280 14.93949854999589"
      },
      "geometry": {
        "type": "Point",
        "coordinates": [
          -37.39280776541572,
          33.945763166305404
        ]
      }
    },
    {
      "type": "Feature",
      "properties": {
        "norad_id": 30891,
        "name": "FENGYUN 1C DEB",
        "group": "fengyun-1c-debris",
        "lat": 70.61767520267975,
        "lon": -116.73040507852748,
        "alt_km": 854.138015684186,
        "timestamp": "2025-12-15T15:53:20.131147+00:00",
        "meta_object_name": "FENGYUN 1C DEB",
        "meta_object_id": "1999-025AYD",
        "meta_epoch": "2025-12-14T08:55:41.271744",
        "meta_mean_motion": 14.05870662,
        "meta_eccentricity": 0.0055451,
        "meta_inclination": 98.7852,
        "meta_ra_of_asc_node": 35.9429,
        "meta_arg_of_pericenter": 183.0943,
        "meta_mean_anomaly": 239.4021,
        "meta_ephemeris_type": 0,
        "meta_classification_type": "U",
        "meta_norad_cat_id": 30891,
        "meta_element_set_no": 999,
        "meta_rev_at_epoch": 96005,
        "meta_bstar": 0.0010589021,
        "meta_mean_motion_dot": 1.714e-05,
        "meta_mean_motion_ddot": 0,
        "tle_line1": "1 30891U 99025AYD 25348.37200546  .00001714  00000+0  10589-2 0  9992",
        "tle_line2": "2 30891  98.7852  35.9429 0055451 183.0943 239.4021 14.05870662960052"
      },
      "geometry": {
        "type": "Point",
        "coordinates": [
          -116.73040507852748,
          70.61767520267975
        ]
      }
    },
    {
      "type": "Feature",
      "properties": {
        "norad_id": 30892,
        "name": "FENGYUN 1C DEB",
        "group": "fengyun-1c-debris",
        "lat": 23.363790480101443,
        "lon": 117.32288750891236,
        "alt_km": 803.5639912972247,
        "timestamp": "2025-12-15T15:53:20.131155+00:00",
        "meta_object_name": "FENGYUN 1C DEB",
        "meta_object_id": "1999-025AYE",
        "meta_epoch": "2025-12-13T14:04:34.549536",
        "meta_mean_motion": 14.18924802,
        "meta_eccentricity": 0.00379168,
        "meta_inclination": 99.663,
        "meta_ra_of_asc_node": 290.842,
        "meta_arg_of_pericenter": 186.6804,
        "meta_mean_anomaly": 173.3868,
        "meta_ephemeris_type": 0,
        "meta_classification_type": "U",
        "meta_norad_cat_id": 30892,
        "meta_element_set_no": 999,
        "meta_rev_at_epoch": 64315,
        "meta_bstar": 0.00057005886,
        "meta_mean_motion_dot": 1.145e-05,
        "meta_mean_motion_ddot": 0,
        "tle_line1": "1 30892U 99025AYE 25347.58651099  .00001145  00000+0  57006-3 0  9992",
        "tle_line2": "2 30892  99.6630 290.8420 0037916 186.6804 173.3868 14.18924802643155"
      },
      "geometry": {
        "type": "Point",
        "coordinates": [
          117.32288750891236,
          23.363790480101443
        ]
      }
    }
  ]
}